[{"OBJECT_NAME":"STARLINK-30195","OBJECT_ID":"2023-102C","EPOCH":"2025-11-12T22:46:07.631616","MEAN_MOTION":15.02530613,"ECCENTRICITY":6.44e-5,"INCLINATION":43.0001,"RA_OF_ASC_NODE":163.3691,"ARG_OF_PERICENTER":262.2181,"MEAN_ANOMALY":97.8588,"EPHEMERIS_TYPE":0,"CLASSIFICATION_TYPE":"U","NORAD_CAT_ID":57406,"ELEMENT_SET_NO":999,"REV_AT_EPOCH":12867,"BSTAR":-2.1104e-5,"MEAN_MOTION_DOT":-4.88e-6,"MEAN_MOTION_DDOT":0},{"OBJECT_NAME":"STARLINK-30207","OBJECT_ID":"2023-102D","EPOCH":"2025-11-12T21:58:32.109024","MEAN_MOTION":15.02542523,"ECCENTRICITY":0.0001194,"INCLINATION":43.0027,"RA_OF_ASC_NODE":150.2051,"ARG_OF_PERICENTER":267.638,"MEAN_ANOMALY":92.4326,"EPHEMERIS_TYPE":0,"CLASSIFICATION_TYPE":"U","NORAD_CAT_ID":57407,"ELEMENT_SET_NO":999,"REV_AT_EPOCH":12883,"BSTAR":0.00010344,"MEAN_MOTION_DOT":1.194e-5,"MEAN_MOTION_DDOT":0},{"OBJECT_NAME":"STARLINK-30205","OBJECT_ID":"2023-102E","EPOCH":"2025-11-13T00:07:24.610080","MEAN_MOTION":15.02572652,"ECCENTRICITY":0.00011404,"INCLINATION":43.0023,"RA_OF_ASC_NODE":162.9367,"ARG_OF_PERICENTER":270.549,"MEAN_ANOMALY":89.5222,"EPHEMERIS_TYPE":0,"CLASSIFICATION_TYPE":"U","NORAD_CAT_ID":57408,"ELEMENT_SET_NO":999,"REV_AT_EPOCH":12868,"BSTAR":0.00020092726,"MEAN_MOTION_DOT":2.514e-5,"MEAN_MOTION_DDOT":0},{"OBJECT_NAME":"STARLINK-30222","OBJECT_ID":"2023-102F","EPOCH":"2025-11-12T23:53:02.998176","MEAN_MOTION":15.02547928,"ECCENTRICITY":4.979e-5,"INCLINATION":43.0003,"RA_OF_ASC_NODE":162.8632,"ARG_OF_PERICENTER":314.1133,"MEAN_ANOMALY":45.9668,"EPHEMERIS_TYPE":0,"CLASSIFICATION_TYPE":"U","NORAD_CAT_ID":57409,"ELEMENT_SET_NO":999,"REV_AT_EPOCH":12868,"BSTAR":0.00027620515,"MEAN_MOTION_DOT":3.531e-5,"MEAN_MOTION_DDOT":0},{"OBJECT_NAME":"STARLINK-30172","OBJECT_ID":"2023-102G","EPOCH":"2025-11-13T00:02:38.561280","MEAN_MOTION":15.02543209,"ECCENTRICITY":0.00010711,"INCLINATION":43.0015,"RA_OF_ASC_NODE":162.8968,"ARG_OF_PERICENTER":270.062,"MEAN_ANOMALY":90.01,"EPHEMERIS_TYPE":0,"CLASSIFICATION_TYPE":"U","NORAD_CAT_ID":57410,"ELEMENT_SET_NO":999,"REV_AT_EPOCH":12868,"BSTAR":9.7595881e-5,"MEAN_MOTION_DOT":1.115e-5,"MEAN_MOTION_DDOT":0},{"OBJECT_NAME":"STARLINK-30214","OBJECT_ID":"2023-102H","EPOCH":"2025-11-12T23:19:27.187680","MEAN_MOTION":15.02570982,"ECCENTRICITY":0.0001244,"INCLINATION":43.0021,"RA_OF_ASC_NODE":162.6914,"ARG_OF_PERICENTER":258.1858,"MEAN_ANOMALY":101.8845,"EPHEMERIS_TYPE":0,"CLASSIFICATION_TYPE":"U","NORAD_CAT_ID":57411,"ELEMENT_SET_NO":999,"REV_AT_EPOCH":12863,"BSTAR":0.00036865,"MEAN_MOTION_DOT":4.784e-5,"MEAN_MOTION_DDOT":0},{"OBJECT_NAME":"STARLINK-30182","OBJECT_ID":"2023-102J","EPOCH":"2025-11-13T06:20:45.136320","MEAN_MOTION":15.02553725,"ECCENTRICITY":0.00015368,"INCLINATION":43.0016,"RA_OF_ASC_NODE":161.4379,"ARG_OF_PERICENTER":259.4533,"MEAN_ANOMALY":100.6136,"EPHEMERIS_TYPE":0,"CLASSIFICATION_TYPE":"U","NORAD_CAT_ID":57412,"ELEMENT_SET_NO":999,"REV_AT_EPOCH":12872,"BSTAR":0.00029842675,"MEAN_MOTION_DOT":3.832e-5,"MEAN_MOTION_DDOT":0},{"OBJECT_NAME":"STARLINK-30191","OBJECT_ID":"2023-102K","EPOCH":"2025-11-12T13:20:38.530464","MEAN_MOTION":15.27585262,"ECCENTRICITY":0.00013989,"INCLINATION":42.9992,"RA_OF_ASC_NODE":128.1497,"ARG_OF_PERICENTER":264.7271,"MEAN_ANOMALY":95.3421,"EPHEMERIS_TYPE":0,"CLASSIFICATION_TYPE":"U","NORAD_CAT_ID":57413,"ELEMENT_SET_NO":999,"REV_AT_EPOCH":12905,"BSTAR":2.466036e-5,"MEAN_MOTION_DOT":4.17e-6,"MEAN_MOTION_DDOT":0},{"OBJECT_NAME":"STARLINK-30193","OBJECT_ID":"2023-102L","EPOCH":"2025-11-13T06:06:22.070304","MEAN_MOTION":15.02557399,"ECCENTRICITY":0.00012806,"INCLINATION":43.0024,"RA_OF_ASC_NODE":161.3499,"ARG_OF_PERICENTER":265.7227,"MEAN_ANOMALY":94.3469,"EPHEMERIS_TYPE":0,"CLASSIFICATION_TYPE":"U","NORAD_CAT_ID":57414,"ELEMENT_SET_NO":999,"REV_AT_EPOCH":12872,"BSTAR":0.00086356801,"MEAN_MOTION_DOT":0.00011487,"MEAN_MOTION_DDOT":0},{"OBJECT_NAME":"STARLINK-30208","OBJECT_ID":"2023-102M","EPOCH":"2025-11-12T23:38:39.928704","MEAN_MOTION":15.02550928,"ECCENTRICITY":0.00016829,"INCLINATION":43.0056,"RA_OF_ASC_NODE":162.7838,"ARG_OF_PERICENTER":263.5492,"MEAN_ANOMALY":96.5159,"EPHEMERIS_TYPE":0,"CLASSIFICATION_TYPE":"U","NORAD_CAT_ID":57415,"ELEMENT_SET_NO":999,"REV_AT_EPOCH":12863,"BSTAR":-0.0002145543,"MEAN_MOTION_DOT":-3.102e-5,"MEAN_MOTION_DDOT":0},{"OBJECT_NAME":"STARLINK-30224","OBJECT_ID":"2023-102N","EPOCH":"2025-11-12T23:33:52.293600","MEAN_MOTION":15.02551588,"ECCENTRICITY":0.00013288,"INCLINATION":43.0007,"RA_OF_ASC_NODE":162.7601,"ARG_OF_PERICENTER":273.9799,"MEAN_ANOMALY":86.0891,"EPHEMERIS_TYPE":0,"CLASSIFICATION_TYPE":"U","NORAD_CAT_ID":57416,"ELEMENT_SET_NO":999,"REV_AT_EPOCH":12868,"BSTAR":0.00017234973,"MEAN_MOTION_DOT":2.126e-5,"MEAN_MOTION_DDOT":0},{"OBJECT_NAME":"STARLINK-30043","OBJECT_ID":"2023-102P","EPOCH":"2025-11-12T23:24:17.381952","MEAN_MOTION":15.02549415,"ECCENTRICITY":0.0001046,"INCLINATION":43.0018,"RA_OF_ASC_NODE":162.706,"ARG_OF_PERICENTER":266.6753,"MEAN_ANOMALY":93.397,"EPHEMERIS_TYPE":0,"CLASSIFICATION_TYPE":"U","NORAD_CAT_ID":57417,"ELEMENT_SET_NO":999,"REV_AT_EPOCH":12868,"BSTAR":9.2577e-5,"MEAN_MOTION_DOT":1.048e-5,"MEAN_MOTION_DDOT":0},{"OBJECT_NAME":"STARLINK-30221","OBJECT_ID":"2023-102Q","EPOCH":"2025-11-12T23:29:04.769088","MEAN_MOTION":15.02544815,"ECCENTRICITY":0.00011713,"INCLINATION":43.0027,"RA_OF_ASC_NODE":162.7317,"ARG_OF_PERICENTER":261.0563,"MEAN_ANOMALY":99.0146,"EPHEMERIS_TYPE":0,"CLASSIFICATION_TYPE":"U","NORAD_CAT_ID":57418,"ELEMENT_SET_NO":999,"REV_AT_EPOCH":12868,"BSTAR":5.7737237e-5,"MEAN_MOTION_DOT":5.77e-6,"MEAN_MOTION_DDOT":0},{"OBJECT_NAME":"STARLINK-30189","OBJECT_ID":"2023-105A","EPOCH":"2025-11-13T00:16:42.064608","MEAN_MOTION":15.02534601,"ECCENTRICITY":0.00010117,"INCLINATION":43.0015,"RA_OF_ASC_NODE":176.1218,"ARG_OF_PERICENTER":270.2162,"MEAN_ANOMALY":89.8564,"EPHEMERIS_TYPE":0,"CLASSIFICATION_TYPE":"U","NORAD_CAT_ID":57430,"ELEMENT_SET_NO":999,"REV_AT_EPOCH":12796,"BSTAR":-1.0648782e-5,"MEAN_MOTION_DOT":-3.47e-6,"MEAN_MOTION_DDOT":0},{"OBJECT_NAME":"STARLINK-30188","OBJECT_ID":"2023-105C","EPOCH":"2025-11-13T00:07:05.492352","MEAN_MOTION":15.02550738,"ECCENTRICITY":0.00010261,"INCLINATION":43.0021,"RA_OF_ASC_NODE":176.0719,"ARG_OF_PERICENTER":275.4523,"MEAN_ANOMALY":84.6203,"EPHEMERIS_TYPE":0,"CLASSIFICATION_TYPE":"U","NORAD_CAT_ID":57432,"ELEMENT_SET_NO":999,"REV_AT_EPOCH":12797,"BSTAR":0.00011640717,"MEAN_MOTION_DOT":1.37e-5,"MEAN_MOTION_DDOT":0},{"OBJECT_NAME":"STARLINK-30105","OBJECT_ID":"2023-105D","EPOCH":"2025-11-13T02:14:41.421408","MEAN_MOTION":15.2758521,"ECCENTRICITY":0.0001774,"INCLINATION":43.0059,"RA_OF_ASC_NODE":329.3026,"ARG_OF_PERICENTER":262.6532,"MEAN_ANOMALY":97.4119,"EPHEMERIS_TYPE":0,"CLASSIFICATION_TYPE":"U","NORAD_CAT_ID":57433,"ELEMENT_SET_NO":999,"REV_AT_EPOCH":13049,"BSTAR":0.00012822209,"MEAN_MOTION_DOT":3.268e-5,"MEAN_MOTION_DDOT":0}]
