STARLINK-30195          
1 57406U 23102C   25316.94869944 -.00000488  00000+0 -21104-4 0  9993
2 57406  43.0001 163.3691 0000644 262.2181  97.8588 15.02530613128672
STARLINK-30207          
1 57407U 23102D   25316.91564941  .00001194  00000+0  10344-3 0  9996
2 57407  43.0027 150.2051 0001194 267.6380  92.4326 15.02542523128839
STARLINK-30205          
1 57408U 23102E   25317.00514595  .00002514  00000+0  20093-3 0  9997
2 57408  43.0023 162.9367 0001140 270.5490  89.5222 15.02572652128683
STARLINK-30222          
1 57409U 23102F   25316.99517359  .00003531  00000+0  27621-3 0  9990
2 57409  43.0003 162.8632 0000497 314.1133  45.9668 15.02547928128687
STARLINK-30172          
1 57410U 23102G   25317.00183520  .00001115  00000+0  97596-4 0  9999
2 57410  43.0015 162.8968 0001071 270.0620  90.0100 15.02543209128684
STARLINK-30214          
1 57411U 23102H   25316.97184245  .00004784  00000+0  36865-3 0  9996
2 57411  43.0021 162.6914 0001244 258.1858 101.8845 15.02570982128633
STARLINK-30182          
1 57412U 23102J   25317.26441130  .00003832  00000+0  29843-3 0  9990
2 57412  43.0016 161.4379 0001536 259.4533 100.6136 15.02553725128724
STARLINK-30191          
1 57413U 23102K   25316.55600151  .00000417  00000+0  24660-4 0  9991
2 57413  42.9992 128.1497 0001398 264.7271  95.3421 15.27585262129053
STARLINK-30193          
1 57414U 23102L   25317.25442211  .00011487  00000+0  86357-3 0  9990
2 57414  43.0024 161.3499 0001280 265.7227  94.3469 15.02557399128722
STARLINK-30208          
1 57415U 23102M   25316.98518436 -.00003102  00000+0 -21455-3 0  9998
2 57415  43.0056 162.7838 0001682 263.5492  96.5159 15.02550928128637
STARLINK-30224          
1 57416U 23102N   25316.98185525  .00002126  00000+0  17235-3 0  9992
2 57416  43.0007 162.7601 0001328 273.9799  86.0891 15.02551588128689
STARLINK-30043          
1 57417U 23102P   25316.97520118  .00001048  00000+0  92577-4 0  9998
2 57417  43.0018 162.7060 0001046 266.6753  93.3970 15.02549415128682
STARLINK-30221          
1 57418U 23102Q   25316.97852742  .00000577  00000+0  57737-4 0  9995
2 57418  43.0027 162.7317 0001171 261.0563  99.0146 15.02544815128682
STARLINK-30189          
1 57430U 23105A   25317.01159797 -.00000347  00000+0 -10649-4 0  9996
2 57430  43.0015 176.1218 0001011 270.2162  89.8564 15.02534601127965
STARLINK-30188          
1 57432U 23105C   25317.00492468  .00001370  00000+0  11641-3 0  9999
2 57432  43.0021 176.0719 0001026 275.4523  84.6203 15.02550738127976
STARLINK-30105          
1 57433U 23105D   25317.09353497  .00003268  00000+0  12822-3 0  9997
2 57433  43.0059 329.3026 0001774 262.6532  97.4119 15.27585210130499
